#cP2023  3  7  0  0  0.00000000      96 ORBIT IGS20 HLM  IGS
## 2252 172800.00000000   900.00000000 60010 0.0000000000000
+   32   G01G02G03G04G05G06G07G08G09G10G11G12G13G14G15G16G17
+        G18G19G20G21G22G23G24G25G26G27G28G29G30G31G32  0  0
+          0  0  0  0  0  0  0  0  0  0  0  0  0  0  0  0  0
+          0  0  0  0  0  0  0  0  0  0  0  0  0  0  0  0  0
+          0  0  0  0  0  0  0  0  0  0  0  0  0  0  0  0  0
++         2  2  2  2  2  2  2  2  2  2  2  2  2  2  2  2  2
++         2  2  2  2  3  2  2  2  2  2  3  2  2  2  2  0  0
++         0  0  0  0  0  0  0  0  0  0  0  0  0  0  0  0  0
++         0  0  0  0  0  0  0  0  0  0  0  0  0  0  0  0  0
++         0  0  0  0  0  0  0  0  0  0  0  0  0  0  0  0  0
%c G  cc GPS ccc cccc cccc cccc cccc ccccc ccccc ccccc ccccc
%c cc cc ccc ccc cccc cccc cccc cccc ccccc ccccc ccccc ccccc
%f  1.2500000  1.025000000  0.00000000000  0.000000000000000
%f  0.0000000  0.000000000  0.00000000000  0.000000000000000
%i    0    0    0    0      0      0      0      0         0
%i    0    0    0    0      0      0      0      0         0
/* RAPID ORBIT COMBINATION FROM WEIGHTED AVERAGE OF:        
/* cod emr esa gfz grg jpl ngs sio usn whu                  
/* REFERENCED TO IGS TIME (IGST) AND TO WEIGHTED MEAN POLE: 
/* PCV:IGS20_2233 OL/AL:FES2014b NONE     Y  ORB:CMB CLK:CMB
*  2023  3  7  3 45  0.00000000
PG01  -2828.565287  16156.729651 -21124.976223    205.367326  6  5  7 114       
PG02  -1460.703230 -16146.981966  21702.317564   -616.176453  4  7  2 110       
PG03   7446.084274  19530.931850 -16579.612990   -353.903550  4  5  4 117       
PG04    306.997403  25796.738397   6075.354836    -12.791488  6 10  3  86       
PG05   8394.940792 -12498.920564  21710.020867   -118.492194  7  2  3 128       
PG06  24821.557973  -4395.849959  -8454.782707    579.153258  6  7  7  64       
PG07  12356.763295  11190.946532  21203.521681    228.160473  6  7  3  97       
PG08  -6647.574203  24722.012312   6189.669630   -111.728135  7  6  3 113       
PG09   8719.973878  20009.936415  15029.004353   -205.555509  5  7  7  85       
PG10 -23171.125780 -10103.302000  -8474.388899    -27.503397  4  5  7  96       
PG11  22952.191091 -12301.783819   5150.467072   -122.944659  7 10  4 104       
PG12  -4058.771040 -19675.156000 -17704.322239   -348.450525  6  3  4 106       
PG13  13115.706218 -20016.983579  11131.132342    486.599869  6  8  2 107       
PG14  22706.289336  12434.151647  -6239.140222    -10.578874  6  4  5  92       
PG15   3401.321052 -25567.986102   5252.039284     19.326624  4  8  5 108       
PG16 -12083.024159   9174.965710  21526.346062   -516.799754  4  6  2  62       
PG17  13429.046773   7031.208077 -21369.818356    704.043049  6  9    106       
PG18 -15663.155385  -8203.481077  19867.673240   -168.866537  5  7  6  97       
PG19  15686.659667  -3921.230429 -21245.044580    286.658551  7  9  5  89       
PG20  17658.271545  -6145.940567  18821.820434    446.584813  8  3  2 109       
PG21 -10919.901575  17878.902655 -15227.669889    154.273145  6  4  6 121       
PG22 -15495.768919   8188.586241 -19464.923941    440.335080 10  7  7  93       
PG23 -20573.225570 -16707.747941   2698.830552      9.296678  2  5  6  93       
PG24   6023.810018 -18516.931883 -18230.891552   -101.451784  5  6  5  94       
PG25 -14160.062042 -19967.762010 -10957.179755    425.645347  7  6  7 102       
PG26 -21548.573595   -226.813821  15627.144726    241.897829  4  4  3  89       
PG27 -12537.892641  17329.725685  15228.644338     86.764851  6  6  5  91       
PG28 -24242.608662   3512.557726 -10290.286590     35.766910  8  7  8  82       
PG29  -4384.042666 -22734.104548  12891.153985   -589.610211  6  6  3 104       
PG30  22375.379630   2185.741101  14440.544804   -527.890985  6  6  4  85       
PG31 -25527.175751   5687.936710  -6032.894179   -210.985493  6  8  5  87       
PG32 -14826.430099  -3541.514040 -21589.731449   -416.117230  6  3  5 114       
*  2023  3  7  4  0  0.00000000
PG01  -4948.482577  17025.071995 -19974.414843    205.363848  6  5  6 111       
PG02    561.464326 -17246.426111  20878.834572   -616.173807  4  8  3 111       
PG03   5764.430062  18500.947612 -18339.760865   -353.898253  4  5  4 118       
PG04     -7.501100  26298.283098   3276.030983    -12.783855  6 11  3  79       
PG05  10510.096735 -11148.617042  21535.680161   -118.493217  7  2  2 129       
PG06  23867.362471  -3790.919856 -11062.411892    579.156123  6  7  7  63       
PG07  10228.080199  12215.192316  21732.668014    228.153681  7  6  3  90       
PG08  -6866.333518  23827.654181   8886.484113   -111.730167  6  6  4 114       
PG09   8407.286517  21602.231710  12852.035309   -205.548851  4  7  7  85       
PG10 -23749.447704 -10721.214485  -5759.137654    -27.505471  4  4  7 109       
PG11  23438.947517 -12238.767086   2326.791018   -122.954636  7  9  5 110       
PG12  -2382.444224 -18474.767825 -19250.889563   -348.454769  6  4  3  91       
PG13  12998.566903 -18566.819118  13509.773252    486.604539  6  8  2 112       
PG14  22989.200430  12984.365944  -3487.331726    -10.570015  6  3  4  89       
PG15   3791.111487 -24771.632264   7925.193038     19.329650  4  8  5 121       
PG16 -13978.386036   7552.887852  21051.255059   -516.797853  3  5  2  65       
PG17  13002.642862   9489.840125 -20676.921315    704.045185  6  9  2 105       
PG18 -13569.324090  -9219.855350  20921.546380   -168.881149  5  6  5  97       
PG19  15278.780150  -1536.296745 -21870.610427    286.663405  7  9  4  81       
PG20  19455.899226  -5105.817299  17276.805279    446.582903  7  3  3 111       
PG21 -12553.461104  18526.800424 -13048.790577    154.273483  6  6  6 124       
PG22 -15201.871998   5824.310883 -20511.666680    440.341577 10  7  7  84       
PG23 -20068.591887 -16625.728464   5517.959568      9.298401  1  4  6  89       
PG24   7817.173129 -19316.779341 -16577.744535   -101.465663  5  6  5 106       
PG25 -12940.487839 -19384.293976 -13303.126847    425.648080  7  6  7 100       
PG26 -22875.094813  -1289.220201  13602.915959    241.897893  4  5  4  74       
PG27 -12564.612831  15414.117855  17153.893952     86.757156  5  6  6  95       
PG28 -23172.697054   2723.332275 -12716.167095     35.777156  7  7  8 105       
PG29  -3988.968638 -24029.558993  10439.957707   -589.611917  6  6  4 106       
PG30  20875.037451   3100.293742  16378.097244   -527.889679  6  6  4 102       
PG31 -24873.749520   5158.042233  -8684.496680   -210.986079  6  8  5 106       
PG32 -14607.835693  -6015.540761 -21208.523330   -416.127240  5  4  5 114       
*  2023  3  7  4 15  0.00000000
PG01  -6888.271402  17944.988024 -18485.820218    205.360385  5  6  5 114       
PG02   2429.138337 -18395.547510  19716.572782   -616.171586  4  8  3 112       
PG03   3874.196593  17470.850297 -19788.562196   -353.892945  4  5  4 121       
PG04   -276.006332  26495.083755    419.948257    -12.776161  7 11  3  81       
PG05  12655.479359  -9931.377287  20985.290889   -118.494173  7  3  2 119       
PG06  22697.313106  -2997.504822 -13480.027151    579.159021  6  7  7  43       
PG07   8117.830569  13369.040686  21903.687849    228.146870  7  6  3 101       
PG08  -7129.754941  22646.606852  11426.527122   -111.730761  6  6  4 119       
PG09   8178.125618  22948.523027  10452.498016   -205.542226  2  7  7  87       
PG10 -24094.722016 -11142.406232  -2946.134316    -27.507117  3  4  7  94       
PG11  23637.632439 -12062.163734   -537.004210   -122.964641  6  9  5  78       
PG12   -518.681989 -17276.257020 -20474.547334   -348.458902  6  4  3  97       
PG13  12916.584724 -16857.155270  15651.279142    486.610325  6  7  2 102       
PG14  23038.003520  13346.680950   -675.980482    -10.561170  5  3  3  94       
PG15   4252.724155 -23697.352915  10457.569831     19.332547  4  8  4 115       
PG16 -15891.346480   6080.681726  20206.232888   -516.795956  3  5  3  67       
PG17  12716.685721  11865.897112 -19613.582393    704.047267  5  8  3  94       
PG18 -11444.815223 -10394.762910  21616.485814   -168.895771  5  6  5 104       
PG19  14995.937880    913.435074 -22126.682339    286.667765  7  9  4  90       
PG20  21126.427448  -4227.200717  15432.999323    446.580686  7  3  4 103       
PG21 -13927.174933  19108.065454 -10627.930682    154.273665  7  7  6 120       
PG22 -15018.214180   3349.026919 -21190.196919    440.348510 10  7  7  65       
PG23 -19288.300891 -16415.693606   8242.947081      9.300131     5  6 107       
PG24   9406.958588 -20091.796974 -14641.518109   -101.479571  5  6  5 110       
PG25 -11479.470676 -18736.566403 -15427.110656    425.650860  6  6  7  99       
PG26 -24037.453527  -2171.609640  11346.795424    241.897947  4  6  5  66       
PG27 -12686.337062  13299.884209  18773.833643     86.749455  5  6  6 111       
PG28 -21919.817999   1746.300522 -14923.504559     35.787413  7  7  8  94       
PG29  -3694.518598 -25056.886940   7807.886798   -589.613650  6  7  5 108       
PG30  19242.156600   4181.597536  18038.614116   -527.888451  5  5  4  86       
PG31 -23992.722606   4463.412607 -11191.351210   -210.987172  6  7  5 102       
PG32 -14518.483004  -8430.721892 -20457.637302   -416.137219  5  4  5 112       
EOF
